$$SOE
2460714.500000000, A.D. 2025-Feb-08 00:00:00.0000, 1.896163832503837E+07, -6.596436058926098E+08, -1.884374836139312E+07,
2460721.500000000, A.D. 2025-Feb-15 00:00:00.0000, 2.680918138571845E+07, -6.576977347338673E+08, -1.926476001570663E+07,
2460728.500000000, A.D. 2025-Feb-22 00:00:00.0000, 3.465216422253151E+07, -6.556401279271226E+08, -1.968249608184811E+07,
2460735.500000000, A.D. 2025-Mar-01 00:00:00.0000, 4.248921045281764E+07, -6.534702796796321E+08, -2.009686003785235E+07,
2460742.500000000, A.D. 2025-Mar-08 00:00:00.0000, 5.031892423098623E+07, -6.511876919879310E+08, -2.050775448010343E+07,
2460749.500000000, A.D. 2025-Mar-15 00:00:00.0000, 5.813988985695617E+07, -6.487918732221086E+08, -2.091508095679176E+07,
2460756.500000000, A.D. 2025-Mar-22 00:00:00.0000, 6.595066917454486E+07, -6.462823381411587E+08, -2.131873971335125E+07,
2460763.500000000, A.D. 2025-Mar-29 00:00:00.0000, 7.374980033786365E+07, -6.436586101816249E+08, -2.171862974710673E+07,
2460770.500000000, A.D. 2025-Apr-05 00:00:00.0000, 8.153579827154663E+07, -6.409202228820477E+08, -2.211464894482744E+07,
2460777.500000000, A.D. 2025-Apr-12 00:00:00.0000, 8.930715489925818E+07, -6.380667203399968E+08, -2.250669411837268E+07,
2460784.500000000, A.D. 2025-Apr-19 00:00:00.0000, 9.706233895365411E+07, -6.350976575835674E+08, -2.289466099361581E+07,
2460791.500000000, A.D. 2025-Apr-26 00:00:00.0000, 1.047997956398547E+08, -6.320126010607935E+08, -2.327844419446355E+07,
2460798.500000000, A.D. 2025-May-03 00:00:00.0000, 1.125179462665201E+08, -6.288111292281591E+08, -2.365793723110485E+07,
2460805.500000000, A.D. 2025-May-10 00:00:00.0000, 1.202151878735532E+08, -6.254928332298589E+08, -2.403303249463749E+07,
2460812.500000000, A.D. 2025-May-17 00:00:00.0000, 1.278898928936515E+08, -6.220573177091472E+08, -2.440362126498258E+07,
2460819.500000000, A.D. 2025-May-24 00:00:00.0000, 1.355404090221822E+08, -6.185042018065706E+08, -2.476959375262961E+07,
2460826.500000000, A.D. 2025-May-31 00:00:00.0000, 1.431650597137789E+08, -6.148331200345038E+08, -2.513083918721372E+07,
2460833.500000000, A.D. 2025-Jun-07 00:00:00.0000, 1.507621449053836E+08, -6.110437218236332E+08, -2.548724581775504E+07,
2460840.500000000, A.D. 2025-Jun-14 00:00:00.0000, 1.583299396018725E+08, -6.071356704085038E+08, -2.583870066223192E+07,
2460847.500000000, A.D. 2025-Jun-21 00:00:00.0000, 1.658666915420477E+08, -6.031086443235973E+08, -2.618508938550329E+07,
2460854.500000000, A.D. 2025-Jun-28 00:00:00.0000, 1.733706210745383E+08, -5.989623397459172E+08, -2.652629644837290E+07,
2460861.500000000, A.D. 2025-Jul-05 00:00:00.0000, 1.808399217280772E+08, -5.946964715288230E+08, -2.686220521250400E+07,
2460868.500000000, A.D. 2025-Jul-12 00:00:00.0000, 1.882727602860588E+08, -5.903107737335068E+08, -2.719269795777789E+07,
2460875.500000000, A.D. 2025-Jul-19 00:00:00.0000, 1.956672765558233E+08, -5.858050002339370E+08, -2.751765587647688E+07,
2460882.500000000, A.D. 2025-Jul-26 00:00:00.0000, 2.030215830435750E+08, -5.811789254524033E+08, -2.783695906815061E+07,
2460889.500000000, A.D. 2025-Aug-02 00:00:00.0000, 2.103337646014369E+08, -5.764323452044300E+08, -2.815048653936055E+07,
2460896.500000000, A.D. 2025-Aug-09 00:00:00.0000, 2.176018780713663E+08, -5.715650776679939E+08, -2.845811621159747E+07,
2460903.500000000, A.D. 2025-Aug-16 00:00:00.0000, 2.248239520044082E+08, -5.665769645405793E+08, -2.875972494953346E+07,
2460910.500000000, A.D. 2025-Aug-23 00:00:00.0000, 2.319979867496395E+08, -5.614678723681030E+08, -2.905518863501683E+07,
2460917.500000000, A.D. 2025-Aug-30 00:00:00.0000, 2.391219552435073E+08, -5.562376933325115E+08, -2.934438225852081E+07,
2460924.500000000, A.D. 2025-Sep-06 00:00:00.0000, 2.461938030829877E+08, -5.508863444987291E+08, -2.962717981609643E+07,
2460931.500000000, A.D. 2025-Sep-13 00:00:00.0000, 2.532114462131668E+08, -5.454137680042710E+08, -2.990345406135479E+07,
2460938.500000000, A.D. 2025-Sep-20 00:00:00.0000, 2.601727695041651E+08, -5.398199338359228E+08, -3.017307654697508E+07,
2460945.500000000, A.D. 2025-Sep-27 00:00:00.0000, 2.670756272781439E+08, -5.341048420822747E+08, -3.043591779847497E+07,
2460952.500000000, A.D. 2025-Oct-04 00:00:00.0000, 2.739178437718804E+08, -5.282685241235550E+08, -3.069184739117453E+07,
2460959.500000000, A.D. 2025-Oct-11 00:00:00.0000, 2.806972131633711E+08, -5.223110437022167E+08, -3.094073397317436E+07,
2460966.500000000, A.D. 2025-Oct-18 00:00:00.0000, 2.874114994483231E+08, -5.162324981489140E+08, -3.118244528289646E+07,
2460973.500000000, A.D. 2025-Oct-25 00:00:00.0000, 2.940584363083490E+08, -5.100330197529050E+08, -3.141684817326623E+07,
2460980.500000000, A.D. 2025-Nov-01 00:00:00.0000, 3.006357270126498E+08, -5.037127772612296E+08, -3.164380864514259E+07,
2460987.500000000, A.D. 2025-Nov-08 00:00:00.0000, 3.071410443902030E+08, -4.972719775376615E+08, -3.186319189605036E+07,
2460994.500000000, A.D. 2025-Nov-15 00:00:00.0000, 3.135720310230523E+08, -4.907108674394198E+08, -3.207486240293387E+07,
2461001.500000000, A.D. 2025-Nov-22 00:00:00.0000, 3.199263000664915E+08, -4.840297356910964E+08, -3.227868405827418E+07,
2461008.500000000, A.D. 2025-Nov-29 00:00:00.0000, 3.262014365462077E+08, -4.772289136207055E+08, -3.247452025316662E+07,
2461015.500000000, A.D. 2025-Dec-06 00:00:00.0000, 3.323949968579715E+08, -4.703087748937958E+08, -3.266223370996311E+07,
2461022.500000000, A.D. 2025-Dec-13 00:00:00.0000, 3.385045069062872E+08, -4.632697376150994E+08, -3.284168638003334E+07,
2461029.500000000, A.D. 2025-Dec-20 00:00:00.0000, 3.445274623785008E+08, -4.561122677732424E+08, -3.301273964374161E+07,
2461036.500000000, A.D. 2025-Dec-27 00:00:00.0000, 3.504613300844442E+08, -4.488368814363104E+08, -3.317525450266972E+07,
2461043.500000000, A.D. 2026-Jan-03 00:00:00.0000, 3.563035489061788E+08, -4.414441463129425E+08, -3.332909168077475E+07,
2461050.500000000, A.D. 2026-Jan-10 00:00:00.0000, 3.620515304711963E+08, -4.339346833565277E+08, -3.347411170019242E+07,
2461057.500000000, A.D. 2026-Jan-17 00:00:00.0000, 3.677026597851053E+08, -4.263091685022275E+08, -3.361017496060881E+07,
2461064.500000000, A.D. 2026-Jan-24 00:00:00.0000, 3.732542959051165E+08, -4.185683345117700E+08, -3.373714182755792E+07,
2461071.500000000, A.D. 2026-Jan-31 00:00:00.0000, 3.787037726811574E+08, -4.107129729303941E+08, -3.385487273244268E+07,
2461078.500000000, A.D. 2026-Feb-07 00:00:00.0000, 3.840483996297874E+08, -4.027439362096263E+08, -3.396322829465094E+07,
2461085.500000000, A.D. 2026-Feb-14 00:00:00.0000, 3.892854631983197E+08, -3.946621400072017E+08, -3.406206949031129E+07,
2461092.500000000, A.D. 2026-Feb-21 00:00:00.0000, 3.944122288119028E+08, -3.864685650835187E+08, -3.415125785620311E+07,
2461099.500000000, A.D. 2026-Feb-28 00:00:00.0000, 3.994259426242463E+08, -3.781642576385437E+08, -3.423065553521673E+07,
2461106.500000000, A.D. 2026-Mar-07 00:00:00.0000, 4.043238309181273E+08, -3.697503300368421E+08, -3.430012513406692E+07,
2461113.500000000, A.D. 2026-Mar-14 00:00:00.0000, 4.091030999352308E+08, -3.612279642500706E+08, -3.435952983858316E+07,
2461120.500000000, A.D. 2026-Mar-21 00:00:00.0000, 4.137609379224617E+08, -3.525984151148345E+08, -3.440873371333033E+07,
2461127.500000000, A.D. 2026-Mar-28 00:00:00.0000, 4.182945173899707E+08, -3.438630123732129E+08, -3.444760191722035E+07,
2461134.500000000, A.D. 2026-Apr-04 00:00:00.0000, 4.227009969816047E+08, -3.350231624572415E+08, -3.447600085863970E+07,
2461141.500000000, A.D. 2026-Apr-11 00:00:00.0000, 4.269775232359966E+08, -3.260803503723667E+08, -3.449379834456427E+07,
2461148.500000000, A.D. 2026-Apr-18 00:00:00.0000, 4.311212324019367E+08, -3.170361416811575E+08, -3.450086373872566E+07,
2461155.500000000, A.D. 2026-Apr-25 00:00:00.0000, 4.351292523582318E+08, -3.078921845667493E+08, -3.449706813171864E+07,
2461162.500000000, A.D. 2026-May-02 00:00:00.0000, 4.389987046729686E+08, -2.986502119993746E+08, -3.448228452816881E+07,
2461169.500000000, A.D. 2026-May-09 00:00:00.0000, 4.427267069306682E+08, -2.893120440652654E+08, -3.445638806768230E+07,
2461176.500000000, A.D. 2026-May-16 00:00:00.0000, 4.463103757090582E+08, -2.798795903118037E+08, -3.441925630282214E+07,
2461183.500000000, A.D. 2026-May-23 00:00:00.0000, 4.497468302614833E+08, -2.703548510783926E+08, -3.437076945522808E+07,
2461190.500000000, A.D. 2026-May-30 00:00:00.0000, 4.530331948307543E+08, -2.607399174858079E+08, -3.431081043311810E+07,
2461197.500000000, A.D. 2026-Jun-06 00:00:00.0000, 4.561665992798418E+08, -2.510369733495846E+08, -3.423926484862430E+07,
2461204.500000000, A.D. 2026-Jun-13 00:00:00.0000, 4.591441817068583E+08, -2.412482988088216E+08, -3.415602135495131E+07,
2461211.500000000, A.D. 2026-Jun-20 00:00:00.0000, 4.619630925451935E+08, -2.313762727338952E+08, -3.406097201831216E+07,
2461218.500000000, A.D. 2026-Jun-27 00:00:00.0000, 4.646204984523515E+08, -2.214233742426635E+08, -3.395401259671296E+07,
2461225.500000000, A.D. 2026-Jul-04 00:00:00.0000, 4.671135859885544E+08, -2.113921840894270E+08, -3.383504278896150E+07,
2461232.500000000, A.D. 2026-Jul-11 00:00:00.0000, 4.694395653395076E+08, -2.012853860473840E+08, -3.370396648797764E+07,
2461239.500000000, A.D. 2026-Jul-18 00:00:00.0000, 4.715956741758701E+08, -1.911057682472078E+08, -3.356069204475449E+07,
2461246.500000000, A.D. 2026-Jul-25 00:00:00.0000, 4.735791816730128E+08, -1.808562244570471E+08, -3.340513254485804E+07,
2461253.500000000, A.D. 2026-Aug-01 00:00:00.0000, 4.753873927373776E+08, -1.705397553398162E+08, -3.323720610559122E+07,
2461260.500000000, A.D. 2026-Aug-08 00:00:00.0000, 4.770176526512544E+08, -1.601594697109500E+08, -3.305683621612734E+07,
2461267.500000000, A.D. 2026-Aug-15 00:00:00.0000, 4.784673525468748E+08, -1.497185853326333E+08, -3.286395212138897E+07,
2461274.500000000, A.D. 2026-Aug-22 00:00:00.0000, 4.797339349447972E+08, -1.392204280092335E+08, -3.265848907945929E+07,
$$EOE